[{"OBJECT_NAME":"STARLINK-3996","OBJECT_ID":"2022-052V","EPOCH":"2026-03-09T22:39:01.701216","MEAN_MOTION":15.0883833,"ECCENTRICITY":0.0001327,"INCLINATION":53.2174,"RA_OF_ASC_NODE":267.9799,"ARG_OF_PERICENTER":85.0569,"MEAN_ANOMALY":275.0575,"EPHEMERIS_TYPE":0,"CLASSIFICATION_TYPE":"U","NORAD_CAT_ID":52617,"ELEMENT_SET_NO":999,"REV_AT_EPOCH":21102,"BSTAR":4.6699496e-5,"MEAN_MOTION_DOT":4.55e-6,"MEAN_MOTION_DDOT":0},{"OBJECT_NAME":"OBJECT B","OBJECT_ID":"2024-174B","EPOCH":"2026-03-09T23:26:11.570784","MEAN_MOTION":15.09493991,"ECCENTRICITY":0.00195829,"INCLINATION":97.4508,"RA_OF_ASC_NODE":75.153,"ARG_OF_PERICENTER":270.277,"MEAN_ANOMALY":89.6216,"EPHEMERIS_TYPE":0,"CLASSIFICATION_TYPE":"U","NORAD_CAT_ID":61239,"ELEMENT_SET_NO":999,"REV_AT_EPOCH":8042,"BSTAR":0.00031274192,"MEAN_MOTION_DOT":4.97e-5,"MEAN_MOTION_DDOT":0}]
